NORAD_CAT_ID,OBJECT_NAME,OBJECT_TYPE,EPOCH,MEAN_MOTION,ECCENTRICITY,INCLINATION,RA_OF_ASC_NODE,ARG_OF_PERICENTER,MEAN_ANOMALY,BSTAR,MEAN_MOTION_DOT,MEAN_MOTION_DDOT,TLE_LINE0,TLE_LINE1,TLE_LINE2,SEMIMAJOR_AXIS,PERIOD,APOGEE,PERIGEE,DECAYED
50848.0,STARLINK-3315,PAYLOAD,2022-12-05 10:56:40,15.08840698,0.0003184,53.2162,122.2935,48.7339,311.3927,0.00011926,1.6100000000000002e-05,0.0,0 STARLINK-3315,1 50848U 22001AX  22339.45602705  .00001610  00000-0  11926-3 0  9998,2 50848  53.2162 122.2935 0003184  48.7339 311.3927 15.08840698 50583,6917.878000000002,95.438,541.946,537.5409999999998,0.0
50848.0,STARLINK-3315,PAYLOAD,2022-12-05 14:07:26,15.08843585,0.0003221,53.2166,121.6993,50.3311,309.7965,0.00012409,1.687e-05,0.0,0 STARLINK-3315,1 50848U 22001AX  22339.58850536  .00001687  00000-0  12409-3 0  9990,2 50848  53.2166 121.6993 0003221  50.3311 309.7965 15.08843585 51914,6917.869000000002,95.437,541.9630000000002,537.506,0.0
50848.0,STARLINK-3315,PAYLOAD,2022-12-05 18:53:35,15.08850174,0.0003267,53.2154,120.8068,51.1333,308.995,0.00011103,1.479e-05,0.0,0 STARLINK-3315,1 50848U 22001AX  22339.78722055  .00001479  00000-0  11103-3 0  9995,2 50848  53.2154 120.8068 0003267  51.1333 308.9950 15.08850174 50633,6917.849,95.437,541.974,537.4540000000002,0.0
50848.0,STARLINK-3315,PAYLOAD,2022-12-06 09:12:04,15.08846423,0.0003291,53.2149,118.1301,49.2747,310.853,0.00011532,1.547e-05,0.0,0 STARLINK-3315,1 50848U 22001AX  22340.38338190  .00001547  00000-0  11532-3 0  9998,2 50848  53.2149 118.1301 0003291  49.2747 310.8530 15.08846423 50729,6917.861,95.437,542.002,537.4490000000002,0.0
50848.0,STARLINK-3315,PAYLOAD,2022-12-06 15:33:36,15.08841286,0.0003307,53.2153,116.9404,49.9354,310.1928,2.0094e-05,3.1e-07,0.0,0 STARLINK-3315,1 50848U 22001AX  22340.64834486  .00000031  00000-0  20094-4 0  9997,2 50848  53.2153 116.9404 0003307  49.9354 310.1928 15.08841286 52079,6917.876,95.437,542.029,537.4540000000002,0.0
50848.0,STARLINK-3315,PAYLOAD,2022-12-07 18:35:10,15.08835798,0.0003179,53.2147,111.8847,47.7944,312.3317,2.0113e-06,-2.57e-06,0.0,0 STARLINK-3315,1 50848U 22001AX  22341.77443161 -.00000257  00000-0  20113-5 0  9992,2 50848  53.2147 111.8847 0003179  47.7944 312.3317 15.08835798 50935,6917.893,95.438,541.957,537.559,0.0
50848.0,STARLINK-3315,PAYLOAD,2022-12-07 20:10:33,15.08838223,0.0003166,53.2147,111.5874,47.4973,312.6286,4.3403e-05,4.02e-06,0.0,0 STARLINK-3315,1 50848U 22001AX  22341.84067063  .00000402  00000-0  43403-4 0  9990,2 50848  53.2147 111.5874 0003166  47.4973 312.6286 15.08838223 52258,6917.886,95.438,541.941,537.561,0.0
50848.0,STARLINK-3315,PAYLOAD,2022-12-08 12:04:24,15.08846808,0.000314,53.2147,108.6144,45.371,314.7538,0.00029213,4.365e-05,0.0,0 STARLINK-3315,1 50848U 22001AX  22342.50306450  .00004365  00000-0  29213-3 0  9994,2 50848  53.2147 108.6144 0003140  45.3710 314.7538 15.08846808 51040,6917.86,95.437,541.8969999999998,537.552,0.0
50848.0,STARLINK-3315,PAYLOAD,2022-12-08 18:25:57,15.08858563,0.0003188999999999,53.2147,107.4245,46.7347,313.3911,0.00062086,9.612e-05,0.0,0 STARLINK-3315,1 50848U 22001AX  22342.76802335  .00009612  00000-0  62086-3 0  9990,2 50848  53.2147 107.4245 0003189  46.7347 313.3911 15.08858563 52393,6917.824000000001,95.436,541.895,537.4830000000002,0.0
50848.0,STARLINK-3315,PAYLOAD,2022-12-09 08:44:25,15.08863007,0.0004439,53.2154,104.7489,46.0736,314.0622,0.00046707,7.158e-05,0.0,0 STARLINK-3315,1 50848U 22001AX  22343.36418083  .00007158  00000-0  46707-3 0  9995,2 50848  53.2154 104.7489 0004439  46.0736 314.0622 15.08863007 51176,6917.81,95.436,542.746,536.604,0.0
50848.0,STARLINK-3315,PAYLOAD,2022-12-09 19:52:06,15.08844631,6.99e-05,53.2154,102.6671,34.9217,325.1821,-0.00014545,-2.602e-05,0.0,0 STARLINK-3315,1 50848U 22001AX  22343.82785429 -.00002602  00000-0 -14545-3 0  9993,2 50848  53.2154 102.6671 0000699  34.9217 325.1821 15.08844631 52559,6917.866,95.437,540.215,539.248,0.0
50848.0,STARLINK-3315,PAYLOAD,2022-12-10 06:59:50,15.08827154,0.0003521,53.2152,100.585,46.3163,313.812,-0.00018512,-3.233e-05,0.0,0 STARLINK-3315,1 50848U 22001AX  22344.29155266 -.00003233  00000-0 -18512-3 0  9994,2 50848  53.2152 100.5850 0003521  46.3163 313.8120 15.08827154 52622,6917.92,95.438,542.22,537.349,0.0
50848.0,STARLINK-3315,PAYLOAD,2022-12-10 13:21:23,15.08820757,0.00031,53.2155,99.3963,42.2142,317.9088,-0.0002221,-3.82e-05,0.0,0 STARLINK-3315,1 50848U 22001AX  22344.55651693 -.00003820  00000-0 -22210-3 0  9990,2 50848  53.2155  99.3963 0003100  42.2142 317.9088 15.08820757 51359,6917.939,95.439,541.9490000000002,537.66,0.0
50848.0,STARLINK-3315,PAYLOAD,2022-12-10 14:56:46,15.088232500000002,0.0003125,53.2155,99.0993,41.0352,319.0875,-0.00022018,-3.79e-05,0.0,0 STARLINK-3315,1 50848U 22001AX  22344.62275759 -.00003790  00000-0 -22018-3 0  9995,2 50848  53.2155  99.0993 0003125  41.0352 319.0875 15.08823250 51365,6917.932,95.439,541.9580000000002,537.635,0.0
50848.0,STARLINK-3315,PAYLOAD,2022-12-11 06:50:36,15.0885129,0.0002934,53.2157,96.1243,43.5708,316.5516,-0.00057134,-9.374e-05,0.0,0 STARLINK-3315,1 50848U 22001AX  22345.28514568 -.00009374  00000-0 -57134-3 0  9993,2 50848  53.2157  96.1243 0002934  43.5708 316.5516 15.08851290 52777,6917.846,95.437,541.741,537.681,0.0
50848.0,STARLINK-3315,PAYLOAD,2022-12-11 11:36:47,15.08841035,0.0002874,53.2156,95.2325,46.4816,313.6414,0.00047597,7.295e-05,0.0,0 STARLINK-3315,1 50848U 22001AX  22345.48387845  .00007295  00000-0  47597-3 0  9991,2 50848  53.2156  95.2325 0002874  46.4816 313.6414 15.08841035 51491,6917.877,95.437,541.73,537.754,0.0
50848.0,STARLINK-3315,PAYLOAD,2022-12-11 13:12:10,15.08844893,0.0002898999999999,53.2155,94.9351,46.8353,313.2882,0.00054829,8.45e-05,0.0,0 STARLINK-3315,1 50848U 22001AX  22345.55011773  .00008450  00000-0  54829-3 0  9993,2 50848  53.2155  94.9351 0002899  46.8353 313.2882 15.08844893 52819,6917.865,95.437,541.736,537.725,0.0
50848.0,STARLINK-3315,PAYLOAD,2022-12-11 17:58:19,15.08854946,0.0002951,53.2154,94.0436,43.0793,317.043,0.0008195,0.00012784,0.0,0 STARLINK-3315,1 50848U 22001AX  22345.74883743  .00012784  00000-0  81950-3 0  9998,2 50848  53.2154  94.0436 0002951  43.0793 317.0430 15.08854946 51538,6917.835,95.437,541.741,537.658,0.0
50848.0,STARLINK-3315,PAYLOAD,2022-12-12 11:27:33,15.08847941,0.0002874,53.2149,90.7719,40.8596,319.2611,8.4574e-05,1.058e-05,0.0,0 STARLINK-3315,1 50848U 22001AX  22346.47747454  .00001058  00000-0  84574-4 0  9995,2 50848  53.2149  90.7719 0002874  40.8596 319.2611 15.08847941 52958,6917.856,95.437,541.7090000000002,537.7330000000002,0.0
50848.0,STARLINK-3315,PAYLOAD,2022-12-12 19:24:29,15.08847355,0.0002908,53.2144,89.2844,45.7175,314.4055,0.00018141,2.6e-05,0.0,0 STARLINK-3315,1 50848U 22001AX  22346.80867333  .00002600  00000-0  18141-3 0  9991,2 50848  53.2144  89.2844 0002908  45.7175 314.4055 15.08847355 51698,6917.858,95.437,541.735,537.711,0.0
50848.0,STARLINK-3315,PAYLOAD,2022-12-13 08:07:34,15.08850664,0.0003007,53.2143,86.9056,44.8617,315.2618,0.00015694,2.211e-05,0.0,0 STARLINK-3315,1 50848U 22001AX  22347.33859067  .00002211  00000-0  15694-3 0  9993,2 50848  53.2143  86.9056 0003007  44.8617 315.2618 15.08850664 51778,6917.848000000001,95.437,541.793,537.633,0.0
50848.0,STARLINK-3315,PAYLOAD,2022-12-14 12:44:30,15.08846524,0.000277,53.2142,81.5522,40.2868,319.8329,0.00016428,2.328e-05,0.0,0 STARLINK-3315,1 50848U 22001AX  22348.53090993  .00002328  00000-0  16428-3 0  9996,2 50848  53.2142  81.5522 0002770  40.2868 319.8329 15.08846524 53265,6917.86,95.437,541.6419999999998,537.809,0.0
50848.0,STARLINK-3315,PAYLOAD,2022-12-14 17:30:40,15.08839189,0.0002976,53.2146,80.6607,41.4408,318.681,4.9802e-07,-2.81e-06,0.0,0 STARLINK-3315,1 50848U 22001AX  22348.72963148 -.00000281  00000-0  49802-6 0  9990,2 50848  53.2146  80.6607 0002976  41.4408 318.6810 15.08839189 51982,6917.8830000000025,95.438,541.807,537.689,0.0
50848.0,STARLINK-3315,PAYLOAD,2022-12-15 06:13:45,15.08840713,0.0002862,53.2145,78.283,36.9454,323.1735,0.00010433,1.372e-05,0.0,0 STARLINK-3315,1 50848U 22001AX  22349.25955272  .00001372  00000-0  10433-3 0  9994,2 50848  53.2145  78.2830 0002862  36.9454 323.1735 15.08840713 53373,6917.878000000002,95.438,541.7230000000002,537.763,0.0
50848.0,STARLINK-3315,PAYLOAD,2022-12-15 12:35:17,15.08844977,0.0002753,53.215,77.0933,28.8393,331.2751,0.0001576999999999,2.223e-05,0.0,0 STARLINK-3315,1 50848U 22001AX  22349.52451102  .00002223  00000-0  15770-3 0  9992,2 50848  53.2150  77.0933 0002753  28.8393 331.2751 15.08844977 52105,6917.865,95.437,541.635,537.826,0.0
50848.0,STARLINK-3315,PAYLOAD,2022-12-15 17:21:27,15.08837116,0.0002878999999999,53.2152,76.2014,32.3973,327.7195,2.7031e-05,1.42e-06,0.0,0 STARLINK-3315,1 50848U 22001AX  22349.72323461  .00000142  00000-0  27031-4 0  9992,2 50848  53.2152  76.2014 0002879  32.3973 327.7195 15.08837116 52133,6917.889,95.438,541.746,537.763,0.0
50848.0,STARLINK-3315,PAYLOAD,2022-12-16 12:26:05,15.08831747,0.0002722,53.2162,72.6327,30.0147,330.1001,-3.0616e-05,-7.76e-06,0.0,0 STARLINK-3315,1 50848U 22001AX  22350.51812053 -.00000776  00000-0 -30616-4 0  9999,2 50848  53.2162  72.6327 0002722  30.0147 330.1001 15.08831747 53562,6917.906,95.438,541.654,537.888,0.0
50848.0,STARLINK-3315,PAYLOAD,2022-12-16 17:12:14,15.08837677,0.0002738,53.2161,71.7407,31.8866,328.2291,-1.8647e-05,-5.85e-06,0.0,0 STARLINK-3315,1 50848U 22001AX  22350.71683767 -.00000585  00000-0 -18647-4 0  9997,2 50848  53.2161  71.7407 0002738  31.8866 328.2291 15.08837677 52289,6917.887,95.438,541.6469999999998,537.8580000000002,0.0
50848.0,STARLINK-3315,PAYLOAD,2022-12-17 04:19:56,15.08837386,0.000269,53.2162,69.6591,32.7891,327.3267,7.072899999999999e-05,8.37e-06,0.0,0 STARLINK-3315,1 50848U 22001AX  22351.18051673  .00000837  00000-0  70729-4 0  9991,2 50848  53.2162  69.6591 0002690  32.7891 327.3267 15.08837386 53668,6917.888000000001,95.438,541.614,537.8919999999998,0.0
